NORAD_CAT_ID,OBJECT_NAME,OBJECT_TYPE,EPOCH,MEAN_MOTION,ECCENTRICITY,INCLINATION,RA_OF_ASC_NODE,ARG_OF_PERICENTER,MEAN_ANOMALY,BSTAR,MEAN_MOTION_DOT,MEAN_MOTION_DDOT,TLE_LINE0,TLE_LINE1,TLE_LINE2,SEMIMAJOR_AXIS,PERIOD,APOGEE,PERIGEE,DECAYED
50818.0,STARLINK-3336,PAYLOAD,2024-02-14 03:42:46,15.08853082,0.0001577,53.2186,316.3578,100.2746,259.8424,-1.38e-05,-5.08e-06,0.0,0 STARLINK-3336,1 50818U 22001R   24045.15470202 -.00000508  00000-0 -13800-4 0  9994,2 50818  53.2186 316.3578 0001577 100.2746 259.8424 15.08853082117779,6917.84,95.437,540.796,538.614,0.0
50818.0,STARLINK-3336,PAYLOAD,2024-02-14 18:01:16,15.08835121,0.0001333,53.2183,313.6868,87.9952,272.1193,-8.012e-05,-1.563e-05,0.0,0 STARLINK-3336,1 50818U 22001R   24045.75087988 -.00001563  00000-0 -80120-4 0  9996,2 50818  53.2183 313.6868 0001333  87.9952 272.1193 15.08835121117863,6917.895,95.438,540.682,538.838,0.0
50818.0,STARLINK-3336,PAYLOAD,2024-02-14 22:47:25,15.08837398,0.0001287,53.2179,312.7957,97.298,262.8159,-6.6483e-05,-1.346e-05,0.0,0 STARLINK-3336,1 50818U 22001R   24045.94959800 -.00001346  00000-0 -66483-4 0  9993,2 50818  53.2179 312.7957 0001287  97.2980 262.8159 15.08837398116618,6917.888,95.438,540.644,538.863,0.0
50818.0,STARLINK-3336,PAYLOAD,2024-02-15 00:22:48,15.08837999,0.0001251,53.2178,312.4982,93.6369,266.4766,-5.771e-05,-1.206e-05,0.0,0 STARLINK-3336,1 50818U 22001R   24046.01583755 -.00001206  00000-0 -57710-4 0  9992,2 50818  53.2178 312.4982 0001251  93.6369 266.4766 15.08837999116626,6917.887,95.438,540.617,538.886,0.0
50818.0,STARLINK-3336,PAYLOAD,2024-02-15 22:38:12,15.08832574,0.0001283,53.2174,308.3355,89.7437,270.3702,6.3882e-05,7.29e-06,0.0,0 STARLINK-3336,1 50818U 22001R   24046.94320173  .00000729  00000-0  63882-4 0  9991,2 50818  53.2174 308.3355 0001283  89.7437 270.3702 15.08832574116760,6917.903,95.438,540.656,538.881,0.0
50818.0,STARLINK-3336,PAYLOAD,2024-02-16 03:24:21,15.08844098,0.0001228,53.2169,307.4412,91.4989,268.6144,2.0113e-05,3.2e-07,0.0,0 STARLINK-3336,1 50818U 22001R   24047.14191607  .00000032  00000-0  20113-4 0  9999,2 50818  53.2169 307.4412 0001228  91.4989 268.6144 15.08844098118079,6917.868,95.437,540.582,538.883,0.0
50818.0,STARLINK-3336,PAYLOAD,2024-02-16 09:45:54,15.088439,0.0001288,53.2168,306.2519,92.4402,267.6738,3.7768e-05,3.13e-06,0.0,0 STARLINK-3336,1 50818U 22001R   24047.40687561  .00000313  00000-0  37768-4 0  9993,2 50818  53.2168 306.2519 0001288  92.4402 267.6738 15.08843900116831,6917.868,95.437,540.624,538.842,0.0
50818.0,STARLINK-3336,PAYLOAD,2024-02-16 22:28:59,15.08838182,0.0001387,53.2173,303.8731,88.2967,271.8184,9.0672e-05,1.155e-05,0.0,0 STARLINK-3336,1 50818U 22001R   24047.93680010  .00001155  00000-0  90672-4 0  9991,2 50818  53.2173 303.8731 0001387  88.2967 271.8184 15.08838182116912,6917.886,95.438,540.71,538.791,0.0
50818.0,STARLINK-3336,PAYLOAD,2024-02-17 09:36:41,15.08838446,0.0001429,53.2172,301.7915,86.4689,273.6467,0.0001101,1.465e-05,0.0,0 STARLINK-3336,1 50818U 22001R   24048.40048016  .00001465  00000-0  11010-3 0  9990,2 50818  53.2172 301.7915 0001429  86.4689 273.6467 15.08838446118267,6917.885,95.438,540.739,538.762,0.0
50818.0,STARLINK-3336,PAYLOAD,2024-02-17 22:19:46,15.08837582,0.000158,53.2176,299.4136,95.1369,264.9804,5.1262e-05,5.28e-06,0.0,0 STARLINK-3336,1 50818U 22001R   24048.93040348  .00000528  00000-0  51262-4 0  9991,2 50818  53.2176 299.4136 0001580  95.1369 264.9804 15.08837582117064,6917.888,95.438,540.846,538.66,0.0
50818.0,STARLINK-3336,PAYLOAD,2024-02-18 09:27:28,15.08844658,0.0001264,53.2164,297.3304,88.7708,271.3429,5.2766e-05,5.52e-06,0.0,0 STARLINK-3336,1 50818U 22001R   24049.39407709  .00000552  00000-0  52766-4 0  9997,2 50818  53.2164 297.3304 0001264  88.7708 271.3429 15.08844658117134,6917.866,95.437,540.606,538.857,0.0
50818.0,STARLINK-3336,PAYLOAD,2024-02-18 15:49:01,15.08838102,0.0001829,53.2176,296.1427,88.8782,271.242,4.2632e-05,3.9e-06,0.0,0 STARLINK-3336,1 50818U 22001R   24049.65904377  .00000390  00000-0  42632-4 0  9990,2 50818  53.2176 296.1427 0001829  88.8782 271.2420 15.08838102118453,6917.886,95.438,541.016,538.486,0.0
50818.0,STARLINK-3336,PAYLOAD,2024-02-18 22:10:33,15.08845573,0.0001697,53.2175,294.9528,91.2039,268.9148,-1.8229e-05,-5.78e-06,0.0,0 STARLINK-3336,1 50818U 22001R   24049.92400012 -.00000578  00000-0 -18229-4 0  9992,2 50818  53.2175 294.9528 0001697  91.2039 268.9148 15.08845573117219,6917.863,95.437,540.902,538.554,0.0
50818.0,STARLINK-3336,PAYLOAD,2024-02-19 01:21:19,15.08852647,0.0001489,53.2173,294.3555,88.0688,272.0475,0.00010649,1.408e-05,0.0,0 STARLINK-3336,1 50818U 22001R   24050.05647055  .00001408  00000-0  10649-3 0  9996,2 50818  53.2173 294.3555 0001489  88.0688 272.0475 15.08852647118517,6917.842,95.437,540.737,538.677,0.0
50818.0,STARLINK-3336,PAYLOAD,2024-02-19 09:18:16,15.08833805,0.0001572,53.2172,292.8739,88.7711,271.3461,-1.5845e-05,-5.4e-06,0.0,0 STARLINK-3336,1 50818U 22001R   24050.38768665 -.00000540  00000-0 -15845-4 0  9995,2 50818  53.2172 292.8739 0001572  88.7711 271.3461 15.08833805118567,6917.899,95.438,540.852,538.677,0.0
50818.0,STARLINK-3336,PAYLOAD,2024-02-19 22:01:21,15.0883226,0.0001264,53.2156,290.491,85.4347,274.679,-7.0651e-05,-1.412e-05,0.0,0 STARLINK-3336,1 50818U 22001R   24050.91761095 -.00001412  00000-0 -70651-4 0  9999,2 50818  53.2156 290.4910 0001264  85.4347 274.6790 15.08832260117363,6917.904,95.438,540.643,538.895,0.0
50818.0,STARLINK-3336,PAYLOAD,2024-02-20 09:09:02,15.08843824,0.0001386,53.2167,288.4106,85.9659,274.1492,-1.4728e-05,-5.22e-06,0.0,0 STARLINK-3336,1 50818U 22001R   24051.38128307 -.00000522  00000-0 -14728-4 0  9998,2 50818  53.2167 288.4106 0001386  85.9659 274.1492 15.08843824118717,6917.869,95.437,540.693,538.775,0.0
50818.0,STARLINK-3336,PAYLOAD,2024-02-20 21:52:07,15.08853003,0.0001464,53.216,286.0309,79.121,280.9947,9.3275e-05,1.197e-05,0.0,0 STARLINK-3336,1 50818U 22001R   24051.91119416  .00001197  00000-0  93275-4 0  9999,2 50818  53.2160 286.0309 0001464  79.1210 280.9947 15.08853003117511,6917.841,95.437,540.718,538.693,0.0
50818.0,STARLINK-3336,PAYLOAD,2024-02-21 08:59:49,15.08851172,0.0001355,53.2155,283.9507,79.6046,280.5099,6.0185e-05,6.7e-06,0.0,0 STARLINK-3336,1 50818U 22001R   24052.37487339  .00000670  00000-0  60185-4 0  9991,2 50818  53.2155 283.9507 0001355  79.6046 280.5099 15.08851172117588,6917.846,95.437,540.649,538.774,0.0
50818.0,STARLINK-3336,PAYLOAD,2024-02-21 20:07:31,15.08844449,0.0001443,53.2163,281.8682,78.6358,281.4796,-7.2131e-05,-1.436e-05,0.0,0 STARLINK-3336,1 50818U 22001R   24052.83856105 -.00001436  00000-0 -72131-4 0  9990,2 50818  53.2163 281.8682 0001443  78.6358 281.4796 15.08844449118934,6917.867,95.437,540.73,538.734,0.0
50818.0,STARLINK-3336,PAYLOAD,2024-02-21 21:42:54,15.08838217,0.0001376,53.2175,281.5704,89.1069,271.0081,0.00010201,1.336e-05,0.0,0 STARLINK-3336,1 50818U 22001R   24052.90480155  .00001336  00000-0  10201-3 0  9992,2 50818  53.2175 281.5704 0001376  89.1069 271.0081 15.08838217117667,6917.886,95.438,540.703,538.799,0.0
50818.0,STARLINK-3336,PAYLOAD,2024-02-22 19:58:17,15.08855371,0.0001009,53.216,277.4082,114.2495,245.8603,7.7518e-05,9.47e-06,0.0,0 STARLINK-3336,1 50818U 22001R   24053.83214248  .00000947  00000-0  77518-4 0  9995,2 50818  53.2160 277.4082 0001009 114.2495 245.8603 15.08855371119087,6917.833,95.437,540.396,539.0,0.0
50818.0,STARLINK-3336,PAYLOAD,2024-02-22 21:33:41,15.08832897,0.0001332,53.2166,277.1092,92.9875,267.127,-0.00011903,-2.181e-05,0.0,0 STARLINK-3336,1 50818U 22001R   24053.89840113 -.00002181  00000-0 -11903-3 0  9996,2 50818  53.2166 277.1092 0001332  92.9875 267.1270 15.08832897117818,6917.902,95.438,540.689,538.846,0.0
50818.0,STARLINK-3336,PAYLOAD,2024-02-23 15:02:56,15.08830918,0.0001185,53.2159,273.8383,92.0523,268.0605,-2.8615e-05,-7.43e-06,0.0,0 STARLINK-3336,1 50818U 22001R   24054.62704150 -.00000743  00000-0 -28615-4 0  9999,2 50818  53.2159 273.8383 0001185  92.0523 268.0605 15.08830918117929,6917.908,95.438,540.593,538.953,0.0
50818.0,STARLINK-3336,PAYLOAD,2024-02-23 21:24:28,15.08838592,0.0001153,53.2158,272.6497,89.9774,270.135,-8.5069e-06,-4.23e-06,0.0,0 STARLINK-3336,1 50818U 22001R   24054.89199694 -.00000423  00000-0 -85069-5 0  9991,2 50818  53.2158 272.6497 0001153  89.9774 270.1350 15.08838592119243,6917.885,95.438,540.547,538.952,0.0
50818.0,STARLINK-3336,PAYLOAD,2024-02-24 06:56:47,15.08840014,0.0001102,53.215,270.8645,87.0135,273.0983,-3.3222e-05,-8.16e-06,0.0,0 STARLINK-3336,1 50818U 22001R   24055.28943793 -.00000816  00000-0 -33222-4 0  9991,2 50818  53.2150 270.8645 0001102  87.0135 273.0983 15.08840014118025,6917.88,95.438,540.508,538.983,0.0
50818.0,STARLINK-3336,PAYLOAD,2024-02-24 21:15:16,15.08820619,0.0001126,53.2158,268.1887,89.225,270.8871,8.082e-05,9.98e-06,0.0,0 STARLINK-3336,1 50818U 22001R   24055.88560931  .00000998  00000-0  80820-4 0  9991,2 50818  53.2158 268.1887 0001126  89.2250 270.8871 15.08820619118119,6917.94,95.439,540.584,539.026,0.0
50818.0,STARLINK-3336,PAYLOAD,2024-02-25 00:26:02,15.0882388,0.0001159,53.2158,267.5934,88.259,271.8535,0.00010638,1.405e-05,0.0,0 STARLINK-3336,1 50818U 22001R   24056.01808817  .00001405  00000-0  10638-3 0  9998,2 50818  53.2158 267.5934 0001159  88.2590 271.8535 15.08823880119412,6917.93,95.439,540.596,538.993,0.0
50818.0,STARLINK-3336,PAYLOAD,2024-02-25 06:47:35,15.08828443,0.0001212,53.2164,266.4045,89.5599,270.5532,0.00012765,1.744e-05,0.0,0 STARLINK-3336,1 50818U 22001R   24056.28304719  .00001744  00000-0  12765-3 0  9998,2 50818  53.2164 266.4045 0001212  89.5599 270.5532 15.08828443118178,6917.916,95.438,540.619,538.942,0.0
50818.0,STARLINK-3336,PAYLOAD,2024-02-25 19:30:40,15.08837583,0.0001242,53.2164,264.025,85.5253,274.5881,9.8138e-05,1.274e-05,0.0,0 STARLINK-3336,1 50818U 22001R   24056.81296564  .00001274  00000-0  98138-4 0  9992,2 50818  53.2164 264.0250 0001242  85.5253 274.5881 15.08837583119533,6917.888,95.438,540.612,538.894,0.0
